GLOBALSTAR M042 [-]     
1 25679U 99019D   17345.91538525 -.00000095  00000-0 -29794-4 0  9996
2 25679  52.0006 237.3560 0004015  62.7274  17.9104 12.21999045849788
